STARLINK-31695          
1 59376U 24062C   26068.83557445  .00000127  00000+0  16424-4 0  9997
2 59376  53.1605 254.9954 0001318  85.3607 274.7545 15.30189470109655
NUSHSAT1                
1 63211U 25052B   26068.64700493  .00023034  00000+0  74857-3 0  9997
2 63211  97.4095 325.7239 0005501  84.7512 275.4357 15.31903202 54882
